{"type": "FeatureCollection", "features": [ {"type": "Feature", "properties": {"norad_id": 30160, "name": "FENGYUN 1C DEB", "group": "fengyun-1c-debris", "lat": -80.87727372651155, "lon": 9.821323670434435, "alt_km": 1289.9270867976584, "timestamp": "2025-12-09T23:33:24.128997+00:00", "meta": {"OBJECT_NAME": "FENGYUN 1C DEB", "OBJECT_ID": "1999-025TR", "EPOCH": "2025-12-08T19:29:47.605056", "MEAN_MOTION": 13.42882717, "ECCENTRICITY": 0.03425727, "INCLINATION": 98.8857, "RA_OF_ASC_NODE": 291.8399, "ARG_OF_PERICENTER": 137.7281, "MEAN_ANOMALY": 242.3342, "EPHEMERIS_TYPE": 0, "CLASSIFICATION_TYPE": "U", "NORAD_CAT_ID": 30160, "ELEMENT_SET_NO": 999, "REV_AT_EPOCH": 92361, "BSTAR": 0.00113815, "MEAN_MOTION_DOT": 8.84e-06, "MEAN_MOTION_DDOT": 0}, "tle": {"line1": "1 30160U 99025TR  25342.81235654  .00000884  00000+0  11382-2 0  9991", "line2": "2 30160  98.8857 291.8399 0342572 137.7281 242.3342 13.42882717923614"}}, "geometry": {"type": "Point", "coordinates": [9.821323670434435, -80.87727372651155]}}, {"type": "Feature", "properties": {"norad_id": 30161, "name": "FENGYUN 1C DEB", "group": "fengyun-1c-debris", "lat": 63.35891593785282, "lon": 172.9327031331512, "alt_km": 1276.8826109733563, "timestamp": "2025-12-09T23:33:24.129007+00:00", "meta": {"OBJECT_NAME": "FENGYUN 1C DEB", "OBJECT_ID": "1999-025TS", "EPOCH": "2025-12-09T12:55:34.016160", "MEAN_MOTION": 13.49706248, "ECCENTRICITY": 0.03284224, "INCLINATION": 100.5049, "RA_OF_ASC_NODE": 330.7592, "ARG_OF_PERICENTER": 265.6223, "MEAN_ANOMALY": 219.7222, "EPHEMERIS_TYPE": 0, "CLASSIFICATION_TYPE": "U", "NORAD_CAT_ID": 30161, "ELEMENT_SET_NO": 999, "REV_AT_EPOCH": 92516, "BSTAR": 0.0030476653, "MEAN_MOTION_DOT": 2.644e-05, "MEAN_MOTION_DDOT": 0}, "tle": {"line1": "1 30161U 99025TS  25343.53858815  .00002644  00000+0  30477-2 0  9994", "line2": "2 30161 100.5049 330.7592 0328422 265.6223 219.7222 13.49706248925160"}}, "geometry": {"type": "Point", "coordinates": [172.9327031331512, 63.35891593785282]}}, {"type": "Feature", "properties": {"norad_id": 30162, "name": "FENGYUN 1C DEB", "group": "fengyun-1c-debris", "lat": -56.2322897254046, "lon": -154.321808692724, "alt_km": 1175.078031779547, "timestamp": "2025-12-09T23:33:24.129017+00:00", "meta": {"OBJECT_NAME": "FENGYUN 1C DEB", "OBJECT_ID": "1999-025TT", "EPOCH": "2025-12-09T10:02:10.325184", "MEAN_MOTION": 13.53377362, "ECCENTRICITY": 0.03136475, "INCLINATION": 99.488, "RA_OF_ASC_NODE": 39.6214, "ARG_OF_PERICENTER": 358.0175, "MEAN_ANOMALY": 19.195, "EPHEMERIS_TYPE": 0, "CLASSIFICATION_TYPE": "U", "NORAD_CAT_ID": 30162, "ELEMENT_SET_NO": 999, "REV_AT_EPOCH": 92616, "BSTAR": 0.0035239944, "MEAN_MOTION_DOT": 3.187e-05, "MEAN_MOTION_DDOT": 0}, "tle": {"line1": "1 30162U 99025TT  25343.41817506  .00003187  00000+0  35240-2 0  9990", "line2": "2 30162  99.4880  39.6214 0313647 358.0175  19.1950 13.53377362926169"}}, "geometry": {"type": "Point", "coordinates": [-154.321808692724, -56.2322897254046]}}, {"type": "Feature", "properties": {"norad_id": 30163, "name": "FENGYUN 1C DEB", "group": "fengyun-1c-debris", "lat": 38.76699052230675, "lon": 92.39510504389419, "alt_km": 1372.4197989407476, "timestamp": "2025-12-09T23:33:24.129028+00:00", "meta": {"OBJECT_NAME": "FENGYUN 1C DEB", "OBJECT_ID": "1999-025TU", "EPOCH": "2025-12-09T07:30:43.357248", "MEAN_MOTION": 13.38764555, "ECCENTRICITY": 0.0373335, "INCLINATION": 98.7007, "RA_OF_ASC_NODE": 98.8842, "ARG_OF_PERICENTER": 241.0822, "MEAN_ANOMALY": 176.4761, "EPHEMERIS_TYPE": 0, "CLASSIFICATION_TYPE": "U", "NORAD_CAT_ID": 30163, "ELEMENT_SET_NO": 999, "REV_AT_EPOCH": 91899, "BSTAR": 0.0034719, "MEAN_MOTION_DOT": 2.741e-05, "MEAN_MOTION_DDOT": 0}, "tle": {"line1": "1 30163U 99025TU  25343.31300182  .00002741  00000+0  34719-2 0  9992", "line2": "2 30163  98.7007  98.8842 0373335 241.0822 176.4761 13.38764555918993"}}, "geometry": {"type": "Point", "coordinates": [92.39510504389419, 38.76699052230675]}}, {"type": "Feature", "properties": {"norad_id": 30167, "name": "FENGYUN 1C DEB", "group": "fengyun-1c-debris", "lat": -22.463818906421967, "lon": 72.72615340686926, "alt_km": 837.8233299965123, "timestamp": "2025-12-09T23:33:24.129038+00:00", "meta": {"OBJECT_NAME": "FENGYUN 1C DEB", "OBJECT_ID": "1999-025TY", "EPOCH": "2025-12-09T05:43:53.721408", "MEAN_MOTION": 14.48515253, "ECCENTRICITY": 0.0144089, "INCLINATION": 98.9677, "RA_OF_ASC_NODE": 68.1942, "ARG_OF_PERICENTER": 164.9137, "MEAN_ANOMALY": 261.5116, "EPHEMERIS_TYPE": 0, "CLASSIFICATION_TYPE": "U", "NORAD_CAT_ID": 30167, "ELEMENT_SET_NO": 999, "REV_AT_EPOCH": 99308, "BSTAR": 0.00088286, "MEAN_MOTION_DOT": 3.725e-05, "MEAN_MOTION_DDOT": 0}, "tle": {"line1": "1 30167U 99025TY  25343.23881622  .00003725  00000+0  88286-3 0  9992", "line2": "2 30167  98.9677  68.1942 0144089 164.9137 261.5116 14.48515253993081"}}, "geometry": {"type": "Point", "coordinates": [72.72615340686926, -22.463818906421967]}}, {"type": "Feature", "properties": {"norad_id": 30168, "name": "FENGYUN 1C DEB", "group": "fengyun-1c-debris", "lat": 4.252024205090193, "lon": 56.12525335563057, "alt_km": 785.2159488032885, "timestamp": "2025-12-09T23:33:24.129048+00:00", "meta": {"OBJECT_NAME": "FENGYUN 1C DEB", "OBJECT_ID": "1999-025TZ", "EPOCH": "2025-12-09T03:42:01.094976", "MEAN_MOTION": 14.52762621, "ECCENTRICITY": 0.01006558, "INCLINATION": 97.3898, "RA_OF_ASC_NODE": 55.9487, "ARG_OF_PERICENTER": 165.2127, "MEAN_ANOMALY": 195.2054, "EPHEMERIS_TYPE": 0, "CLASSIFICATION_TYPE": "U", "NORAD_CAT_ID": 30168, "ELEMENT_SET_NO": 999, "REV_AT_EPOCH": 98259, "BSTAR": 0.0025990889, "MEAN_MOTION_DOT": 0.00011381, "MEAN_MOTION_DDOT": 0}, "tle": {"line1": "1 30168U 99025TZ  25343.15417934  .00011381  00000+0  25991-2 0  9995", "line2": "2 30168  97.3898  55.9487 0100655 165.2127 195.2054 14.52762621982598"}}, "geometry": {"type": "Point", "coordinates": [56.12525335563057, 4.252024205090193]}}, {"type": "Feature", "properties": {"norad_id": 30169, "name": "FENGYUN 1C DEB", "group": "fengyun-1c-debris", "lat": 49.17727110208875, "lon": -116.79111297592122, "alt_km": 732.9274539155267, "timestamp": "2025-12-09T23:33:24.129059+00:00", "meta": {"OBJECT_NAME": "FENGYUN 1C DEB", "OBJECT_ID": "1999-025UA", "EPOCH": "2025-12-09T03:27:24.414048", "MEAN_MOTION": 14.57907578, "ECCENTRICITY": 0.02135036, "INCLINATION": 98.3357, "RA_OF_ASC_NODE": 52.5975, "ARG_OF_PERICENTER": 238.2068, "MEAN_ANOMALY": 181.1655, "EPHEMERIS_TYPE": 0, "CLASSIFICATION_TYPE": "U", "NORAD_CAT_ID": 30169, "ELEMENT_SET_NO": 999, "REV_AT_EPOCH": 97671, "BSTAR": 0.0032962669, "MEAN_MOTION_DOT": 0.00020707, "MEAN_MOTION_DDOT": 0}, "tle": {"line1": "1 30169U 99025UA  25343.14403257  .00020707  00000+0  32963-2 0  9997", "line2": "2 30169  98.3357  52.5975 0213503 238.2068 181.1655 14.57907578976712"}}, "geometry": {"type": "Point", "coordinates": [-116.79111297592122, 49.17727110208875]}}, {"type": "Feature", "properties": {"norad_id": 30170, "name": "FENGYUN 1C DEB", "group": "fengyun-1c-debris", "lat": -6.384903213536074, "lon": -27.89771834273221, "alt_km": 878.0462833964439, "timestamp": "2025-12-09T23:33:24.129069+00:00", "meta": {"OBJECT_NAME": "FENGYUN 1C DEB", "OBJECT_ID": "1999-025UB", "EPOCH": "2025-12-09T12:09:38.676960", "MEAN_MOTION": 14.00301719, "ECCENTRICITY": 0.00769404, "INCLINATION": 98.8486, "RA_OF_ASC_NODE": 330.644, "ARG_OF_PERICENTER": 283.7311, "MEAN_ANOMALY": 196.7411, "EPHEMERIS_TYPE": 0, "CLASSIFICATION_TYPE": "U", "NORAD_CAT_ID": 30170, "ELEMENT_SET_NO": 999, "REV_AT_EPOCH": 96370, "BSTAR": 0.00080718785, "MEAN_MOTION_DOT": 1.182e-05, "MEAN_MOTION_DDOT": 0}, "tle": {"line1": "1 30170U 99025UB  25343.50669765  .00001182  00000+0  80719-3 0  9996", "line2": "2 30170  98.8486 330.6440 0076940 283.7311 196.7411 14.00301719963707"}}, "geometry": {"type": "Point", "coordinates": [-27.89771834273221, -6.384903213536074]}}, {"type": "Feature", "properties": {"norad_id": 30171, "name": "FENGYUN 1C DEB", "group": "fengyun-1c-debris", "lat": -66.82558941236026, "lon": 1.7332191119161686, "alt_km": 791.5537667666158, "timestamp": "2025-12-09T23:33:24.129080+00:00", "meta": {"OBJECT_NAME": "FENGYUN 1C DEB", "OBJECT_ID": "1999-025UC", "EPOCH": "2025-12-09T13:45:41.854176", "MEAN_MOTION": 13.96855263, "ECCENTRICITY": 0.01845235, "INCLINATION": 98.398, "RA_OF_ASC_NODE": 201.5475, "ARG_OF_PERICENTER": 276.3114, "MEAN_ANOMALY": 81.7064, "EPHEMERIS_TYPE": 0, "CLASSIFICATION_TYPE": "U", "NORAD_CAT_ID": 30171, "ELEMENT_SET_NO": 999, "REV_AT_EPOCH": 96226, "BSTAR": 0.00034408945, "MEAN_MOTION_DOT": 5.12e-06, "MEAN_MOTION_DDOT": 0}, "tle": {"line1": "1 30171U 99025UC  25343.57340109  .00000512  00000+0  34409-3 0  9993", "line2": "2 30171  98.3980 201.5475 0184523 276.3114  81.7064 13.96855263962261"}}, "geometry": {"type": "Point", "coordinates": [1.7332191119161686, -66.82558941236026]}}, {"type": "Feature", "properties": {"norad_id": 30172, "name": "FENGYUN 1C DEB", "group": "fengyun-1c-debris", "lat": 73.83126212245266, "lon": 177.10175341923303, "alt_km": 857.9156816751811, "timestamp": "2025-12-09T23:33:24.129090+00:00", "meta": {"OBJECT_NAME": "FENGYUN 1C DEB", "OBJECT_ID": "1999-025UD", "EPOCH": "2025-12-09T10:14:14.561952", "MEAN_MOTION": 14.12438748, "ECCENTRICITY": 0.00688281, "INCLINATION": 99.2343, "RA_OF_ASC_NODE": 322.3984, "ARG_OF_PERICENTER": 211.5686, "MEAN_ANOMALY": 312.13, "EPHEMERIS_TYPE": 0, "CLASSIFICATION_TYPE": "U", "NORAD_CAT_ID": 30172, "ELEMENT_SET_NO": 999, "REV_AT_EPOCH": 96470, "BSTAR": 0.0021511561, "MEAN_MOTION_DOT": 4.014e-05, "MEAN_MOTION_DDOT": 0}, "tle": {"line1": "1 30172U 99025UD  25343.42655743  .00004014  00000+0  21512-2 0  9992", "line2": "2 30172  99.2343 322.3984 0068828 211.5686 312.1300 14.12438748964705"}}, "geometry": {"type": "Point", "coordinates": [177.10175341923303, 73.83126212245266]}}]}